[{"OBJECT_NAME":"STARLINK-33949","OBJECT_ID":"2025-110K","EPOCH":"2026-03-09T21:53:53.528640","MEAN_MOTION":15.30220734,"ECCENTRICITY":0.0001774,"INCLINATION":53.1606,"RA_OF_ASC_NODE":25.9394,"ARG_OF_PERICENTER":106.5126,"MEAN_ANOMALY":253.607,"EPHEMERIS_TYPE":0,"CLASSIFICATION_TYPE":"U","NORAD_CAT_ID":64105,"ELEMENT_SET_NO":999,"REV_AT_EPOCH":4591,"BSTAR":0.0016091324,"MEAN_MOTION_DOT":0.00047636,"MEAN_MOTION_DDOT":0},{"OBJECT_NAME":"FENGYUN 1C DEB","OBJECT_ID":"1999-025EGV","EPOCH":"2026-02-28T16:17:34.017216","MEAN_MOTION":14.9983724,"ECCENTRICITY":0.01801634,"INCLINATION":98.631,"RA_OF_ASC_NODE":214.8944,"ARG_OF_PERICENTER":42.5154,"MEAN_ANOMALY":318.9857,"EPHEMERIS_TYPE":0,"CLASSIFICATION_TYPE":"U","NORAD_CAT_ID":37427,"ELEMENT_SET_NO":999,"REV_AT_EPOCH":61490,"BSTAR":0.00040638516,"MEAN_MOTION_DOT":7.014e-5,"MEAN_MOTION_DDOT":0}]
